[
    {
        "Altitude(m)": 607886.7045469142,
        "Argument of Periapsis(deg)": 0.0,
        "Eccentricity": 0.0,
        "Inclination(deg)": 60.0,
        "Latitude(deg)": 40.998479133051845,
        "Longitude(deg)": -175.02696263165757,
        "Mean Anomaly(deg)": 49.09089999999999,
        "RAAN(deg)": 255.0,
        "Satellite Name": "Test1 1125",
        "Satellite Number": 1125,
        "Semi-Major Axis(m)": 6980739.136638005,
        "Time(s)": 0
    },
    {
        "Altitude(m)": 607987.6183985678,
        "Argument of Periapsis(deg)": 0.00010418945913296404,
        "Eccentricity": 0.0,
        "Inclination(deg)": 60.0,
        "Latitude(deg)": 41.463568614901234,
        "Longitude(deg)": -174.52273353359396,
        "Mean Anomaly(deg)": 49.711006145461795,
        "RAAN(deg)": 254.99957995086027,
        "Satellite Name": "Test1 1125",
        "Satellite Number": 1125,
        "Semi-Major Axis(m)": 6980739.136638005,
        "Time(s)": 10
    },
    {
        "Altitude(m)": 608088.5818600561,
        "Argument of Periapsis(deg)": 0.0002083789182659281,
        "Eccentricity": 0.0,
        "Inclination(deg)": 60.0,
        "Latitude(deg)": 41.92599391134117,
        "Longitude(deg)": -174.01068141008633,
        "Mean Anomaly(deg)": 50.33111229092365,
        "RAAN(deg)": 254.9991599017205,
        "Satellite Name": "Test1 1125",
        "Satellite Number": 1125,
        "Semi-Major Axis(m)": 6980739.136638005,
        "Time(s)": 20
    },
    {
        "Altitude(m)": 608189.5317101872,
        "Argument of Periapsis(deg)": 0.00031256837739889213,
        "Eccentricity": 0.0,
        "Inclination(deg)": 60.0,
        "Latitude(deg)": 42.385674272488394,
        "Longitude(deg)": -173.4906102202081,
        "Mean Anomaly(deg)": 50.95121843638551,
        "RAAN(deg)": 254.9987398525808,
        "Satellite Name": "Test1 1125",
        "Satellite Number": 1125,
        "Semi-Major Axis(m)": 6980739.136638005,
        "Time(s)": 30
    },
    {
        "Altitude(m)": 608290.4049545082,
        "Argument of Periapsis(deg)": 0.0004167578365318562,
        "Eccentricity": 0.0,
        "Inclination(deg)": 60.0,
        "Latitude(deg)": 42.842526401413764,
        "Longitude(deg)": -172.9623200563468,
        "Mean Anomaly(deg)": 51.5713245818473,
        "RAAN(deg)": 254.99831980344106,
        "Satellite Name": "Test1 1125",
        "Satellite Number": 1125,
        "Semi-Major Axis(m)": 6980739.136638005,
        "Time(s)": 40
    },
    {
        "Altitude(m)": 608391.1388565324,
        "Argument of Periapsis(deg)": 0.0005209472956648203,
        "Eccentricity": 0.0,
        "Inclination(deg)": 60.0,
        "Latitude(deg)": 43.29646437475755,
        "Longitude(deg)": -172.4256082392259,
        "Mean Anomaly(deg)": 52.191430727309154,
        "RAAN(deg)": 254.9978997543013,
        "Satellite Name": "Test1 1125",
        "Satellite Number": 1125,
        "Semi-Major Axis(m)": 6980739.136638005,
        "Time(s)": 50
    },
    {
        "Altitude(m)": 608491.6709688411,
        "Argument of Periapsis(deg)": 0.0006251367547977843,
        "Eccentricity": 0.0,
        "Inclination(deg)": 60.0,
        "Latitude(deg)": 43.74739956263303,
        "Longitude(deg)": -171.88026891982173,
        "Mean Anomaly(deg)": 52.811536872770965,
        "RAAN(deg)": 254.99747970516154,
        "Satellite Name": "Test1 1125",
        "Satellite Number": 1125,
        "Semi-Major Axis(m)": 6980739.136638005,
        "Time(s)": 60
    },
    {
        "Altitude(m)": 608591.9391639673,
        "Argument of Periapsis(deg)": 0.0007293262139307483,
        "Eccentricity": 0.0,
        "Inclination(deg)": 60.0,
        "Latitude(deg)": 44.19524054805329,
        "Longitude(deg)": -171.3260927029345,
        "Mean Anomaly(deg)": 53.43164301823282,
        "RAAN(deg)": 254.99705965602183,
        "Satellite Name": "Test1 1125",
        "Satellite Number": 1125,
        "Semi-Major Axis(m)": 6980739.136638005,
        "Time(s)": 70
    },
    {
        "Altitude(m)": 608691.8816650683,
        "Argument of Periapsis(deg)": 0.0008335156730637124,
        "Eccentricity": 0.0,
        "Inclination(deg)": 60.0,
        "Latitude(deg)": 44.639893046147684,
        "Longitude(deg)": -170.76286780730103,
        "Mean Anomaly(deg)": 54.05174916369461,
        "RAAN(deg)": 254.9966396068821,
        "Satellite Name": "Test1 1125",
        "Satellite Number": 1125,
        "Semi-Major Axis(m)": 6980739.136638005,
        "Time(s)": 80
    },
    {
        "Altitude(m)": 608791.4370764121,
        "Argument of Periapsis(deg)": 0.0009377051321966765,
        "Eccentricity": 0.0,
        "Inclination(deg)": 60.0,
        "Latitude(deg)": 45.08125982346562,
        "Longitude(deg)": -170.19037973863524,
        "Mean Anomaly(deg)": 54.67185530915647,
        "RAAN(deg)": 254.99621955774234,
        "Satellite Name": "Test1 1125",
        "Satellite Number": 1125,
        "Semi-Major Axis(m)": 6980739.136638005,
        "Time(s)": 90
    },
    {
        "Altitude(m)": 608890.5444136106,
        "Argument of Periapsis(deg)": 0.0010418945913296407,
        "Eccentricity": 0.0,
        "Inclination(deg)": 60.0,
        "Latitude(deg)": 45.5192406177109,
        "Longitude(deg)": -169.60841099073016,
        "Mean Anomaly(deg)": 55.291961454618274,
        "RAAN(deg)": 254.99579950860257,
        "Satellite Name": "Test1 1125",
        "Satellite Number": 1125,
        "Semi-Major Axis(m)": 6980739.136638005,
        "Time(s)": 100
    },
    {
        "Altitude(m)": 608989.1431335943,
        "Argument of Periapsis(deg)": 0.0011460840504626045,
        "Eccentricity": 0.0,
        "Inclination(deg)": 60.0,
        "Latitude(deg)": 45.95373205829678,
        "Longitude(deg)": -169.01674228987363,
        "Mean Anomaly(deg)": 55.91206760008013,
        "RAAN(deg)": 254.99537945946287,
        "Satellite Name": "Test1 1125",
        "Satellite Number": 1125,
        "Semi-Major Axis(m)": 6980739.136638005,
        "Time(s)": 110
    },
    {
        "Altitude(m)": 609087.1731643745,
        "Argument of Periapsis(deg)": 0.0012502735095955685,
        "Eccentricity": 0.0,
        "Inclination(deg)": 60.0,
        "Latitude(deg)": 46.384627588147026,
        "Longitude(deg)": -168.415152359331,
        "Mean Anomaly(deg)": 56.53217374554198,
        "RAAN(deg)": 254.99495941032313,
        "Satellite Name": "Test1 1125",
        "Satellite Number": 1125,
        "Semi-Major Axis(m)": 6980739.136638005,
        "Time(s)": 120
    },
    {
        "Altitude(m)": 609184.5749344804,
        "Argument of Periapsis(deg)": 0.0013544629687285324,
        "Eccentricity": 0.0,
        "Inclination(deg)": 60.0,
        "Latitude(deg)": 46.81181738723042,
        "Longitude(deg)": -167.80341771937847,
        "Mean Anomaly(deg)": 57.15227989100378,
        "RAAN(deg)": 254.99453936118337,
        "Satellite Name": "Test1 1125",
        "Satellite Number": 1125,
        "Semi-Major Axis(m)": 6980739.136638005,
        "Time(s)": 130
    },
    {
        "Altitude(m)": 609281.2894021531,
        "Argument of Periapsis(deg)": 0.0014586524278614966,
        "Eccentricity": 0.0,
        "Inclination(deg)": 60.0,
        "Latitude(deg)": 47.23518829836926,
        "Longitude(deg)": -167.18131403847613,
        "Mean Anomaly(deg)": 57.77238603646563,
        "RAAN(deg)": 254.9941193120436,
        "Satellite Name": "Test1 1125",
        "Satellite Number": 1125,
        "Semi-Major Axis(m)": 6980739.136638005,
        "Time(s)": 140
    },
    {
        "Altitude(m)": 609377.2580842082,
        "Argument of Periapsis(deg)": 0.0015628418869944607,
        "Eccentricity": 0.0,
        "Inclination(deg)": 60.0,
        "Latitude(deg)": 47.65462375591099,
        "Longitude(deg)": -166.54861601264355,
        "Mean Anomaly(deg)": 58.39249218192744,
        "RAAN(deg)": 254.9936992629039,
        "Satellite Name": "Test1 1125",
        "Satellite Number": 1125,
        "Semi-Major Axis(m)": 6980739.136638005,
        "Time(s)": 150
    },
    {
        "Altitude(m)": 609472.4230846144,
        "Argument of Periapsis(deg)": 0.0016670313461274247,
        "Eccentricity": 0.0,
        "Inclination(deg)": 60.0,
        "Latitude(deg)": 48.07000371792561,
        "Longitude(deg)": -165.9050972887958,
        "Mean Anomaly(deg)": 59.01259832738929,
        "RAAN(deg)": 254.99327921376417,
        "Satellite Name": "Test1 1125",
        "Satellite Number": 1125,
        "Semi-Major Axis(m)": 6980739.136638005,
        "Time(s)": 160
    },
    {
        "Altitude(m)": 609566.7271227374,
        "Argument of Periapsis(deg)": 0.0017712208052603888,
        "Eccentricity": 0.0,
        "Inclination(deg)": 60.0,
        "Latitude(deg)": 48.4812046026526,
        "Longitude(deg)": -165.25053194785983,
        "Mean Anomaly(deg)": 59.63270447285114,
        "RAAN(deg)": 254.9928591646244,
        "Satellite Name": "Test1 1125",
        "Satellite Number": 1125,
        "Semi-Major Axis(m)": 6980739.136638005,
        "Time(s)": 170
    },
    {
        "Altitude(m)": 609660.1135612434,
        "Argument of Periapsis(deg)": 0.001875410264393353,
        "Eccentricity": 0.0,
        "Inclination(deg)": 60.0,
        "Latitude(deg)": 48.888099229985215,
        "Longitude(deg)": -164.584694524904,
        "Mean Anomaly(deg)": 60.25281061831294,
        "RAAN(deg)": 254.99243911548464,
        "Satellite Name": "Test1 1125",
        "Satellite Number": 1125,
        "Semi-Major Axis(m)": 6980739.136638005,
        "Time(s)": 180
    },
    {
        "Altitude(m)": 609752.526433659,
        "Argument of Periapsis(deg)": 0.0019795997235263173,
        "Eccentricity": 0.0,
        "Inclination(deg)": 60.0,
        "Latitude(deg)": 49.29055676885818,
        "Longitude(deg)": -163.90736008214168,
        "Mean Anomaly(deg)": 60.872916763774796,
        "RAAN(deg)": 254.99201906634494,
        "Satellite Name": "Test1 1125",
        "Satellite Number": 1125,
        "Semi-Major Axis(m)": 6980739.136638005,
        "Time(s)": 190
    }
]